{
  "type": "FeatureCollection",
  "features": [
    {
      "type": "Feature",
      "properties": {
        "norad_id": 34875,
        "name": "COSMOS 2251 DEB",
        "group": "cosmos-2251-debris",
        "lat": 0.035290909513785725,
        "lon": -30.32454062971714,
        "alt_km": 732.3292527116919,
        "timestamp": "2025-12-17T07:00:47.304825+00:00",
        "meta_object_name": "COSMOS 2251 DEB",
        "meta_object_id": "1993-036ACN",
        "meta_epoch": "2025-12-16T12:13:08.102784",
        "meta_mean_motion": 14.48939196,
        "meta_eccentricity": 0.00161986,
        "meta_inclination": 74.0432,
        "meta_ra_of_asc_node": 151.1523,
        "meta_arg_of_pericenter": 274.5827,
        "meta_mean_anomaly": 142.3573,
        "meta_ephemeris_type": 0,
        "meta_classification_type": "U",
        "meta_norad_cat_id": 34875,
        "meta_element_set_no": 999,
        "meta_rev_at_epoch": 87810,
        "meta_bstar": 0.00037730944,
        "meta_mean_motion_dot": 1.404e-05,
        "meta_mean_motion_ddot": 0,
        "tle_line1": "1 34875U 93036ACN 25350.50912156  .00001404  00000+0  37731-3 0  9994",
        "tle_line2": "2 34875  74.0432 151.1523 0016198 274.5827 142.3573 14.48939196878100"
      },
      "geometry": {
        "type": "Point",
        "coordinates": [
          -30.32454062971714,
          0.035290909513785725
        ]
      }
    },
    {
      "type": "Feature",
      "properties": {
        "norad_id": 34878,
        "name": "COSMOS 2251 DEB",
        "group": "cosmos-2251-debris",
        "lat": 32.96483989454385,
        "lon": 50.850438776083315,
        "alt_km": 772.1639948921966,
        "timestamp": "2025-12-17T07:00:47.304835+00:00",
        "meta_object_name": "COSMOS 2251 DEB",
        "meta_object_id": "1993-036ACR",
        "meta_epoch": "2025-12-15T21:48:13.370976",
        "meta_mean_motion": 13.44195012,
        "meta_eccentricity": 0.04354662,
        "meta_inclination": 73.9648,
        "meta_ra_of_asc_node": 42.2959,
        "meta_arg_of_pericenter": 25.2,
        "meta_mean_anomaly": 154.8462,
        "meta_ephemeris_type": 0,
        "meta_classification_type": "U",
        "meta_norad_cat_id": 34878,
        "meta_element_set_no": 999,
        "meta_rev_at_epoch": 81315,
        "meta_bstar": 0.00059672813,
        "meta_mean_motion_dot": 5.92e-06,
        "meta_mean_motion_ddot": 0,
        "tle_line1": "1 34878U 93036ACR 25349.90848809  .00000592  00000+0  59673-3 0  9998",
        "tle_line2": "2 34878  73.9648  42.2959 0435466  25.2000 154.8462 13.44195012813155"
      },
      "geometry": {
        "type": "Point",
        "coordinates": [
          50.850438776083315,
          32.96483989454385
        ]
      }
    },
    {
      "type": "Feature",
      "properties": {
        "norad_id": 34882,
        "name": "COSMOS 2251 DEB",
        "group": "cosmos-2251-debris",
        "lat": -28.35015666103068,
        "lon": -151.99027319142462,
        "alt_km": 636.1493316374954,
        "timestamp": "2025-12-17T07:00:47.304845+00:00",
        "meta_object_name": "COSMOS 2251 DEB",
        "meta_object_id": "1993-036ACV",
        "meta_epoch": "2025-12-16T08:08:53.829024",
        "meta_mean_motion": 14.61604342,
        "meta_eccentricity": 0.00829872,
        "meta_inclination": 74.0464,
        "meta_ra_of_asc_node": 218.7097,
        "meta_arg_of_pericenter": 344.8064,
        "meta_mean_anomaly": 15.061,
        "meta_ephemeris_type": 0,
        "meta_classification_type": "U",
        "meta_norad_cat_id": 34882,
        "meta_element_set_no": 999,
        "meta_rev_at_epoch": 88577,
        "meta_bstar": 0.00014326394,
        "meta_mean_motion_dot": 7.15e-06,
        "meta_mean_motion_ddot": 0,
        "tle_line1": "1 34882U 93036ACV 25350.33951191  .00000715  00000+0  14326-3 0  9994",
        "tle_line2": "2 34882  74.0464 218.7097 0082987 344.8064  15.0610 14.61604342885778"
      },
      "geometry": {
        "type": "Point",
        "coordinates": [
          -151.99027319142462,
          -28.35015666103068
        ]
      }
    },
    {
      "type": "Feature",
      "properties": {
        "norad_id": 34883,
        "name": "COSMOS 2251 DEB",
        "group": "cosmos-2251-debris",
        "lat": -32.163178410573636,
        "lon": -115.5077525720675,
        "alt_km": 664.6828445859101,
        "timestamp": "2025-12-17T07:00:47.304856+00:00",
        "meta_object_name": "COSMOS 2251 DEB",
        "meta_object_id": "1993-036ACW",
        "meta_epoch": "2025-12-16T03:33:44.508384",
        "meta_mean_motion": 14.51615138,
        "meta_eccentricity": 0.00951919,
        "meta_inclination": 74.1965,
        "meta_ra_of_asc_node": 56.3649,
        "meta_arg_of_pericenter": 240.9605,
        "meta_mean_anomaly": 118.1996,
        "meta_ephemeris_type": 0,
        "meta_classification_type": "U",
        "meta_norad_cat_id": 34883,
        "meta_element_set_no": 999,
        "meta_rev_at_epoch": 86489,
        "meta_bstar": 0.0030222545,
        "meta_mean_motion_dot": 0.00012841,
        "meta_mean_motion_ddot": 0,
        "tle_line1": "1 34883U 93036ACW 25350.14843181  .00012841  00000+0  30223-2 0  9999",
        "tle_line2": "2 34883  74.1965  56.3649 0095191 240.9605 118.1996 14.51615138864899"
      },
      "geometry": {
        "type": "Point",
        "coordinates": [
          -115.5077525720675,
          -32.163178410573636
        ]
      }
    },
    {
      "type": "Feature",
      "properties": {
        "norad_id": 34884,
        "name": "COSMOS 2251 DEB",
        "group": "cosmos-2251-debris",
        "lat": 56.34782610832637,
        "lon": 73.12132545462309,
        "alt_km": 589.6042475862059,
        "timestamp": "2025-12-17T07:00:47.304866+00:00",
        "meta_object_name": "COSMOS 2251 DEB",
        "meta_object_id": "1993-036ACX",
        "meta_epoch": "2025-12-16T15:11:40.083648",
        "meta_mean_motion": 14.90250753,
        "meta_eccentricity": 0.00024945,
        "meta_inclination": 74.0179,
        "meta_ra_of_asc_node": 48.941,
        "meta_arg_of_pericenter": 61.7078,
        "meta_mean_anomaly": 63.7323,
        "meta_ephemeris_type": 0,
        "meta_classification_type": "U",
        "meta_norad_cat_id": 34884,
        "meta_element_set_no": 999,
        "meta_rev_at_epoch": 87863,
        "meta_bstar": 0.0017646112,
        "meta_mean_motion_dot": 0.00017134,
        "meta_mean_motion_ddot": 0,
        "tle_line1": "1 34884U 93036ACX 25350.63310282  .00017134  00000+0  17646-2 0  9999",
        "tle_line2": "2 34884  74.0179  48.9410 0002494  61.7078  63.7323 14.90250753878633"
      },
      "geometry": {
        "type": "Point",
        "coordinates": [
          73.12132545462309,
          56.34782610832637
        ]
      }
    },
    {
      "type": "Feature",
      "properties": {
        "norad_id": 34885,
        "name": "COSMOS 2251 DEB",
        "group": "cosmos-2251-debris",
        "lat": 31.457517242969036,
        "lon": -175.45977494553657,
        "alt_km": 725.8845684292592,
        "timestamp": "2025-12-17T07:00:47.304877+00:00",
        "meta_object_name": "COSMOS 2251 DEB",
        "meta_object_id": "1993-036ACY",
        "meta_epoch": "2025-12-16T23:07:54.744384",
        "meta_mean_motion": 14.51524925,
        "meta_eccentricity": 0.00151145,
        "meta_inclination": 74.0298,
        "meta_ra_of_asc_node": 175.0683,
        "meta_arg_of_pericenter": 260.487,
        "meta_mean_anomaly": 217.0768,
        "meta_ephemeris_type": 0,
        "meta_classification_type": "U",
        "meta_norad_cat_id": 34885,
        "meta_element_set_no": 999,
        "meta_rev_at_epoch": 87540,
        "meta_bstar": 0.00052941132,
        "meta_mean_motion_dot": 2.093e-05,
        "meta_mean_motion_ddot": 0,
        "tle_line1": "1 34885U 93036ACY 25350.96382806  .00002093  00000+0  52941-3 0  9993",
        "tle_line2": "2 34885  74.0298 175.0683 0015114 260.4870 217.0768 14.51524925875402"
      },
      "geometry": {
        "type": "Point",
        "coordinates": [
          -175.45977494553657,
          31.457517242969036
        ]
      }
    },
    {
      "type": "Feature",
      "properties": {
        "norad_id": 34886,
        "name": "COSMOS 2251 DEB",
        "group": "cosmos-2251-debris",
        "lat": 64.85333476156995,
        "lon": -46.70675771318084,
        "alt_km": 450.528077707525,
        "timestamp": "2025-12-17T07:00:47.304887+00:00",
        "meta_object_name": "COSMOS 2251 DEB",
        "meta_object_id": "1993-036ACZ",
        "meta_epoch": "2025-12-13T21:25:05.379168",
        "meta_mean_motion": 15.38859949,
        "meta_eccentricity": 0.00306549,
        "meta_inclination": 73.9501,
        "meta_ra_of_asc_node": 178.4925,
        "meta_arg_of_pericenter": 1.8054,
        "meta_mean_anomaly": 358.3257,
        "meta_ephemeris_type": 0,
        "meta_classification_type": "U",
        "meta_norad_cat_id": 34886,
        "meta_element_set_no": 999,
        "meta_rev_at_epoch": 63016,
        "meta_bstar": 0.0017695785,
        "meta_mean_motion_dot": 0.00069737,
        "meta_mean_motion_ddot": 0,
        "tle_line1": "1 34886U 93036ACZ 25347.89242337  .00069737  00000+0  17696-2 0  9991",
        "tle_line2": "2 34886  73.9501 178.4925 0030654   1.8054 358.3257 15.38859949630168"
      },
      "geometry": {
        "type": "Point",
        "coordinates": [
          -46.70675771318084,
          64.85333476156995
        ]
      }
    }
  ]
}